[{"OBJECT_NAME":"STARLINK-35842","OBJECT_ID":"2025-298N","EPOCH":"2026-03-09T22:34:19.800480","MEAN_MOTION":14.9914279,"ECCENTRICITY":0.00027944,"INCLINATION":70.0011,"RA_OF_ASC_NODE":13.888,"ARG_OF_PERICENTER":263.2033,"MEAN_ANOMALY":96.8809,"EPHEMERIS_TYPE":0,"CLASSIFICATION_TYPE":"U","NORAD_CAT_ID":67087,"ELEMENT_SET_NO":999,"REV_AT_EPOCH":1325,"BSTAR":0.00085303821,"MEAN_MOTION_DOT":0.00010316,"MEAN_MOTION_DDOT":0},{"OBJECT_NAME":"OBJECT F","OBJECT_ID":"2025-026F","EPOCH":"2026-03-09T16:35:22.568352","MEAN_MOTION":14.96835273,"ECCENTRICITY":0.001234,"INCLINATION":81.996,"RA_OF_ASC_NODE":175.2789,"ARG_OF_PERICENTER":38.1083,"MEAN_ANOMALY":322.1008,"EPHEMERIS_TYPE":0,"CLASSIFICATION_TYPE":"U","NORAD_CAT_ID":63330,"ELEMENT_SET_NO":999,"REV_AT_EPOCH":5316,"BSTAR":0.00045702,"MEAN_MOTION_DOT":5.266e-5,"MEAN_MOTION_DDOT":0}]
